NORAD_CAT_ID,OBJECT_NAME,OBJECT_TYPE,EPOCH,MEAN_MOTION,ECCENTRICITY,INCLINATION,RA_OF_ASC_NODE,ARG_OF_PERICENTER,MEAN_ANOMALY,BSTAR,MEAN_MOTION_DOT,MEAN_MOTION_DDOT,TLE_LINE0,TLE_LINE1,TLE_LINE2,SEMIMAJOR_AXIS,PERIOD,APOGEE,PERIGEE,DECAYED
55436.0,STARLINK-5640,PAYLOAD,2023-10-05 10:12:14,14.9834275,0.0002591,70.0019,179.0934,271.6027,88.4835,-0.00014905,-1.871e-05,0.0,0 STARLINK-5640,1 55436U 23014AX  23278.42516977 -.00001871  00000-0 -14905-3 0  9997,2 55436  70.0019 179.0934 0002591 271.6027  88.4835 14.98342750 38311,6950.153,96.106,573.819,570.218,0.0
55436.0,STARLINK-5640,PAYLOAD,2023-10-05 19:49:03,14.98326857,0.0002853,70.0022,178.0857,267.0743,93.0089,6.6303e-05,6.98e-06,0.0,0 STARLINK-5640,1 55436U 23014AX  23278.82573487  .00000698  00000-0  66303-4 0  9994,2 55436  70.0022 178.0857 0002853 267.0743  93.0089 14.98326857 37438,6950.203,96.107,574.051,570.085,0.0
55436.0,STARLINK-5640,PAYLOAD,2023-10-05 21:25:11,14.98327199,0.0002825,70.002,177.9172,267.4115,92.6721,6.4539e-05,6.77e-06,0.0,0 STARLINK-5640,1 55436U 23014AX  23278.89249480  .00000677  00000-0  64539-4 0  9990,2 55436  70.0020 177.9172 0002825 267.4115  92.6721 14.98327199 38383,6950.202,96.107,574.03,570.103,0.0
55436.0,STARLINK-5640,PAYLOAD,2023-10-06 02:13:35,14.98329454,0.0002638,70.0011,177.4119,256.4977,103.5888,5.905e-05,6.12e-06,0.0,0 STARLINK-5640,1 55436U 23014AX  23279.09277351  .00000612  00000-0  59050-4 0  9992,2 55436  70.0011 177.4119 0002638 256.4977 103.5888 14.98329454 38411,6950.195,96.107,573.893,570.226,0.0
55436.0,STARLINK-5640,PAYLOAD,2023-10-06 21:27:12,14.98325592,0.0002758,70.0011,175.392,263.6377,96.4468,-4.6653e-06,-1.49e-06,0.0,0 STARLINK-5640,1 55436U 23014AX  23279.89389790 -.00000149  00000-0 -46653-5 0  9994,2 55436  70.0011 175.3920 0002758 263.6377  96.4468 14.98325592 38531,6950.207,96.107,573.988,570.155,0.0
55436.0,STARLINK-5640,PAYLOAD,2023-10-07 00:39:28,14.98325485,0.0002838,70.0007,175.0533,269.4935,90.5898,6.8102e-06,-1.2e-07,0.0,0 STARLINK-5640,1 55436U 23014AX  23280.02741798 -.00000012  00000-0  68102-5 0  9992,2 55436  70.0007 175.0533 0002838 269.4935  90.5898 14.98325485 37617,6950.207,96.107,574.044,570.099,0.0
55436.0,STARLINK-5640,PAYLOAD,2023-10-07 10:16:16,14.98349508,0.0002941,70.0003,174.0441,273.0863,86.996,-0.00029972,-3.669e-05,0.0,0 STARLINK-5640,1 55436U 23014AX  23280.42796865 -.00003669  00000-0 -29972-3 0  9993,2 55436  70.0003 174.0441 0002941 273.0863  86.9960 14.98349508 38618,6950.133,96.106,574.042,569.954,0.0
55436.0,STARLINK-5640,PAYLOAD,2023-10-07 21:29:13,14.98328295,0.0002925,70.0007,172.8661,269.6962,90.3862,8.9031e-05,9.69e-06,0.0,0 STARLINK-5640,1 55436U 23014AX  23280.89529415  .00000969  00000-0  89031-4 0  9990,2 55436  70.0007 172.8661 0002925 269.6962  90.3862 14.98328295 38682,6950.198,96.107,574.096,570.03,0.0
55436.0,STARLINK-5640,PAYLOAD,2023-10-08 02:17:37,14.98333922,0.0002926,70.0003,172.3603,263.6508,96.4317,9.9559e-05,1.095e-05,0.0,0 STARLINK-5640,1 55436U 23014AX  23281.09556949  .00001095  00000-0  99559-4 0  9992,2 55436  70.0003 172.3603 0002926 263.6508  96.4317 14.98333922 37774,6950.181,96.107,574.079,570.012,0.0
55436.0,STARLINK-5640,PAYLOAD,2023-10-08 10:18:17,14.98332722,0.0002706,70.0006,171.5188,268.0375,92.0474,9.1268e-05,9.96e-06,0.0,0 STARLINK-5640,1 55436U 23014AX  23281.42937084  .00000996  00000-0  91268-4 0  9990,2 55436  70.0006 171.5188 0002706 268.0375  92.0474 14.98332722 38766,6950.184,96.107,573.93,570.169,0.0
55436.0,STARLINK-5640,PAYLOAD,2023-10-08 21:31:14,14.98331638,0.0002765,70.0003,170.34,267.9593,92.125,8.3671e-05,9.06e-06,0.0,0 STARLINK-5640,1 55436U 23014AX  23281.89669148  .00000906  00000-0  83671-4 0  9994,2 55436  70.0003 170.3400 0002765 267.9593  92.1250 14.98331638 38838,6950.188,96.107,573.975,570.131,0.0
55436.0,STARLINK-5640,PAYLOAD,2023-10-09 02:19:37,14.98335186,0.0002794,70.0003,169.8345,266.3265,93.7574,0.00012094,1.351e-05,0.0,0 STARLINK-5640,1 55436U 23014AX  23282.09696754  .00001351  00000-0  12094-3 0  9995,2 55436  70.0003 169.8345 0002794 266.3265  93.7574 14.98335186 37927,6950.177,96.107,573.984,570.1,0.0
55436.0,STARLINK-5640,PAYLOAD,2023-10-09 10:20:18,14.98329946,0.000264,70.0009,168.9925,271.4061,88.6796,7.8274e-06,0.0,0.0,0 STARLINK-5640,1 55436U 23014AX  23282.43077399  .00000000  00000-0  78274-5 0  9995,2 55436  70.0009 168.9925 0002640 271.4061  88.6796 14.98329946 38914,6950.193,96.107,573.893,570.223,0.0
55436.0,STARLINK-5640,PAYLOAD,2023-10-09 18:20:59,14.98323843,0.0002972,70.0002,168.151,268.8453,91.2365,1.2722e-05,5.9e-07,0.0,0 STARLINK-5640,1 55436U 23014AX  23282.76457678  .00000059  00000-0  12722-4 0  9992,2 55436  70.0002 168.1510 0002972 268.8453  91.2365 14.98323843 38026,6950.212,96.107,574.143,570.011,0.0
55436.0,STARLINK-5640,PAYLOAD,2023-10-09 21:33:12,14.98368322,0.0002753,70.0004,167.8176,237.0336,123.0559,0.00043309,5.083e-05,0.0,0 STARLINK-5640,1 55436U 23014AX  23282.89805658  .00005083  00000-0  43309-3 0  9997,2 55436  70.0004 167.8176 0002753 237.0336 123.0559 14.98368322 38982,6950.074,96.105,573.853,570.026,0.0
55436.0,STARLINK-5640,PAYLOAD,2023-10-10 02:21:35,14.98379703,0.000282,69.9999,167.3107,275.1875,84.8962,0.00049027,5.769e-05,0.0,0 STARLINK-5640,1 55436U 23014AX  23283.09832487  .00005769  00000-0  49027-3 0  9994,2 55436  69.9999 167.3107 0002820 275.1875  84.8962 14.98379703 38074,6950.039,96.104,573.864,569.944,0.0
55436.0,STARLINK-5640,PAYLOAD,2023-10-10 18:22:59,14.98325194,0.0002816,69.9998,165.6276,271.9868,88.0968,-6.7334e-05,-8.96e-06,0.0,0 STARLINK-5640,1 55436U 23014AX  23283.76596870 -.00000896  00000-0 -67334-4 0  9991,2 55436  69.9998 165.6276 0002816 271.9868  88.0968 14.98325194 38170,6950.208,96.107,574.03,570.116,0.0
55436.0,STARLINK-5640,PAYLOAD,2023-10-10 21:35:16,14.98315185,0.0003216,69.9992,165.2899,281.1964,78.8833,-0.00017708,-2.204e-05,0.0,0 STARLINK-5640,1 55436U 23014AX  23283.89949877 -.00002204  00000-0 -17708-3 0  9998,2 55436  69.9992 165.2899 0003216 281.1964  78.8833 14.98315185 39130,6950.239,96.108,574.339,569.869,0.0
55436.0,STARLINK-5640,PAYLOAD,2023-10-11 02:23:40,14.98319077,0.0002677,70.0002,164.7873,263.126,96.9595,-0.00018609,-2.312e-05,0.0,0 STARLINK-5640,1 55436U 23014AX  23284.09977677 -.00002312  00000-0 -18609-3 0  9991,2 55436  70.0002 164.7873 0002677 263.1260  96.9595 14.98319077 38229,6950.227,96.108,573.952,570.231,0.0
55436.0,STARLINK-5640,PAYLOAD,2023-10-12 02:25:41,14.98324797,0.0002791,70.0001,162.2619,267.7882,92.2958,-1.6507e-05,-2.9e-06,0.0,0 STARLINK-5640,1 55436U 23014AX  23285.10117442 -.00000290  00000-0 -16507-4 0  9999,2 55436  70.0001 162.2619 0002791 267.7882  92.2958 14.98324797 38379,6950.209,96.107,574.014,570.134,0.0
55436.0,STARLINK-5640,PAYLOAD,2023-10-12 08:50:13,14.98344445,0.0002625,70.0001,161.5886,278.4991,81.5871,-0.00027168,-3.334e-05,0.0,0 STARLINK-5640,1 55436U 23014AX  23285.36820658 -.00003334  00000-0 -27168-3 0  9993,2 55436  70.0001 161.5886 0002625 278.4991  81.5871 14.98344445 38415,6950.148,96.106,573.838,570.189,0.0
55436.0,STARLINK-5640,PAYLOAD,2023-10-12 20:03:09,14.98320386,0.0002845,69.9996,160.4096,270.3061,89.7772,0.00024282,2.805e-05,0.0,0 STARLINK-5640,1 55436U 23014AX  23285.83552975  .00002805  00000-0  24282-3 0  9993,2 55436  69.9996 160.4096 0002845 270.3061  89.7772 14.98320386 38484,6950.223,96.108,574.065,570.11,0.0
55436.0,STARLINK-5640,PAYLOAD,2023-10-12 21:39:17,14.98321355,0.0002809,69.9998,160.2413,270.3153,89.7685,0.00025224,2.917e-05,0.0,0 STARLINK-5640,1 55436U 23014AX  23285.90228946  .00002917  00000-0  25224-3 0  9990,2 55436  69.9998 160.2413 0002809 270.3153  89.7685 14.98321355 39435,6950.22,96.108,574.037,570.132,0.0
55436.0,STARLINK-5640,PAYLOAD,2023-10-13 00:51:33,14.9832684,0.0002654,69.9999,159.905,268.4823,91.6032,0.00030165,3.508e-05,0.0,0 STARLINK-5640,1 55436U 23014AX  23286.03580531  .00003508  00000-0  30165-3 0  9993,2 55436  69.9999 159.9050 0002654 268.4823  91.6032 14.98326840 38518,6950.203,96.107,573.912,570.223,0.0
55436.0,STARLINK-5640,PAYLOAD,2023-10-13 08:52:14,14.98326029,0.0002515,70.0004,159.0633,263.8094,96.2778,0.00023963,2.767e-05,0.0,0 STARLINK-5640,1 55436U 23014AX  23286.36960872  .00002767  00000-0  23963-3 0  9993,2 55436  70.0004 159.0633 0002515 263.8094  96.2778 14.98326029 39508,6950.205,96.107,573.818,570.322,0.0
55436.0,STARLINK-5640,PAYLOAD,2023-10-13 21:41:17,14.98374689,0.0002942,69.9999,157.7179,265.0175,95.0648,-0.00062453,-7.545e-05,0.0,0 STARLINK-5640,1 55436U 23014AX  23286.90367717 -.00007545  00000-0 -62453-3 0  9990,2 55436  69.9999 157.7179 0002942 265.0175  95.0648 14.98374689 39582,6950.055,96.104,573.964,569.875,0.0
55436.0,STARLINK-5640,PAYLOAD,2023-10-14 00:53:34,14.98331241,0.000296,69.9996,157.3815,271.1422,88.9398,0.00020829,2.393e-05,0.0,0 STARLINK-5640,1 55436U 23014AX  23287.03720672  .00002393  00000-0  20829-3 0  9993,2 55436  69.9996 157.3815 0002960 271.1422  88.9398 14.98331241 38663,6950.189,96.107,574.111,569.997,0.0
55436.0,STARLINK-5640,PAYLOAD,2023-10-14 08:54:15,14.98329541,0.0002595,70.0,156.5383,270.776,89.3102,4.5767e-05,4.53e-06,0.0,0 STARLINK-5640,1 55436U 23014AX  23287.37101144  .00000453  00000-0  45767-4 0  9991,2 55436  70.0000 156.5383 0002595 270.7760  89.3102 14.98329541 39655,6950.194,96.107,573.863,570.256,0.0
55436.0,STARLINK-5640,PAYLOAD,2023-10-14 20:07:12,14.9832577,0.0002729,70.0002,155.3608,269.5002,90.5844,-0.00010293,-1.321e-05,0.0,0 STARLINK-5640,1 55436U 23014AX  23287.83833740 -.00001321  00000-0 -10293-3 0  9998,2 55436  70.0002 155.3608 0002729 269.5002  90.5844 14.98325770 38788,6950.206,96.107,573.968,570.174,0.0
55436.0,STARLINK-5640,PAYLOAD,2023-10-14 21:43:20,14.98327941,0.0002648,69.9998,155.1907,269.5664,90.5191,-8.6643e-05,-1.127e-05,0.0,0 STARLINK-5640,1 55436U 23014AX  23287.90509550 -.00001127  00000-0 -86643-4 0  9992,2 55436  69.9998 155.1907 0002648 269.5664  90.5191 14.98327941 39736,6950.199,96.107,573.905,570.224,0.0
